NORAD_CAT_ID,OBJECT_NAME,OBJECT_TYPE,EPOCH,MEAN_MOTION,ECCENTRICITY,INCLINATION,RA_OF_ASC_NODE,ARG_OF_PERICENTER,MEAN_ANOMALY,BSTAR,MEAN_MOTION_DOT,MEAN_MOTION_DDOT,TLE_LINE0,TLE_LINE1,TLE_LINE2,SEMIMAJOR_AXIS,PERIOD,APOGEE,PERIGEE,DECAYED
54190.0,STARLINK-5281,PAYLOAD,2024-06-13 03:49:14,15.08839765,0.0001248,53.2186,322.7624,77.2441,282.8691,5.5256e-05,5.92e-06,0.0,0 STARLINK-5281,1 54190U 22141AK  24165.15920127  .00000592  00000-0  55256-4 0  9997,2 54190  53.2186 322.7624 0001248  77.2441 282.8691 15.08839765 90436,6917.881,95.438,540.609,538.883,0.0
54190.0,STARLINK-5281,PAYLOAD,2024-06-13 14:56:56,15.0884357,0.0001279,53.2176,320.6804,73.8003,286.313,0.00015382,2.161e-05,0.0,0 STARLINK-5281,1 54190U 22141AK  24165.62287755  .00002161  00000-0  15382-3 0  9991,2 54190  53.2176 320.6804 0001279  73.8003 286.3130 15.08843570 90270,6917.869,95.437,540.619,538.85,0.0
54190.0,STARLINK-5281,PAYLOAD,2024-06-13 18:07:42,15.08849646,0.0001233,53.2166,320.0848,64.3106,295.8013,0.00022027,3.22e-05,0.0,0 STARLINK-5281,1 54190U 22141AK  24165.75535467  .00003220  00000-0  22027-3 0  9992,2 54190  53.2166 320.0848 0001233  64.3106 295.8013 15.08849646 90297,6917.851,95.437,540.569,538.863,0.0
54190.0,STARLINK-5281,PAYLOAD,2024-06-14 14:47:44,15.08837939,0.0001225,53.2153,316.2187,76.9319,283.181,0.00019254,2.778e-05,0.0,0 STARLINK-5281,1 54190U 22141AK  24166.61648159  .00002778  00000-0  19254-3 0  9996,2 54190  53.2153 316.2187 0001225  76.9319 283.1810 15.08837939 90424,6917.887,95.438,540.599,538.904,0.0
54190.0,STARLINK-5281,PAYLOAD,2024-06-14 19:33:53,15.08845469,9.99e-05,53.2168,315.3247,89.9758,270.1349,0.00019699,2.849e-05,0.0,0 STARLINK-5281,1 54190U 22141AK  24166.81519726  .00002849  00000-0  19699-3 0  9997,2 54190  53.2168 315.3247 0000999  89.9758 270.1349 15.08845469 90458,6917.864,95.437,540.42,539.038,0.0
54190.0,STARLINK-5281,PAYLOAD,2024-06-15 14:38:30,15.08844628,0.0001071,53.218,311.7557,92.4543,267.6572,0.00018385,2.64e-05,0.0,0 STARLINK-5281,1 54190U 22141AK  24167.61007745  .00002640  00000-0  18385-3 0  9999,2 54190  53.2180 311.7557 0001071  92.4543 267.6572 15.08844628 90577,6917.866,95.437,540.472,538.99,0.0
54190.0,STARLINK-5281,PAYLOAD,2024-06-15 19:24:39,15.08854031,0.0001386,53.2179,310.8633,102.1502,257.9645,8.7646e-05,1.108e-05,0.0,0 STARLINK-5281,1 54190U 22141AK  24167.80879169  .00001108  00000-0  87646-4 0  9992,2 54190  53.2179 310.8633 0001386 102.1502 257.9645 15.08854031 90609,6917.838,95.437,540.661,538.744,0.0
54190.0,STARLINK-5281,PAYLOAD,2024-06-16 14:29:17,15.0884281,0.0001292,53.2173,307.2939,99.0169,261.0969,0.00010004,1.305e-05,0.0,0 STARLINK-5281,1 54190U 22141AK  24168.60367614  .00001305  00000-0  10004-3 0  9990,2 54190  53.2173 307.2939 0001292  99.0169 261.0969 15.08842810 90721,6917.872,95.437,540.631,538.843,0.0
54190.0,STARLINK-5281,PAYLOAD,2024-06-16 16:04:40,15.08845809,0.0001197,53.2171,306.9996,84.4303,275.6825,0.00015945,2.251e-05,0.0,0 STARLINK-5281,1 54190U 22141AK  24168.66991551  .00002251  00000-0  15945-3 0  9999,2 54190  53.2171 306.9996 0001197  84.4303 275.6825 15.08845809 90734,6917.863,95.437,540.556,538.9,0.0
54190.0,STARLINK-5281,PAYLOAD,2024-06-17 15:55:27,15.08840059,0.0001261,53.2169,302.5387,88.3853,271.7283,5.0886e-05,5.22e-06,0.0,0 STARLINK-5281,1 54190U 22141AK  24169.66351658  .00000522  00000-0  50886-4 0  9991,2 54190  53.2169 302.5387 0001261  88.3853 271.7283 15.08840059 90885,6917.88,95.438,540.618,538.873,0.0
54190.0,STARLINK-5281,PAYLOAD,2024-06-18 12:35:29,15.08839781,0.0001205,53.2182,298.6771,97.9016,262.2113,2.6151e-05,1.28e-06,0.0,0 STARLINK-5281,1 54190U 22141AK  24170.52464332  .00000128  00000-0  26151-4 0  9992,2 54190  53.2182 298.6771 0001205  97.9016 262.2113 15.08839781 91245,6917.881,95.438,540.58,538.912,0.0
54190.0,STARLINK-5281,PAYLOAD,2024-06-18 14:10:52,15.08838624,0.0001255,53.2185,298.378,90.9267,269.1869,4.0525e-05,3.57e-06,0.0,0 STARLINK-5281,1 54190U 22141AK  24170.59088395  .00000357  00000-0  40525-4 0  9995,2 54190  53.2185 298.3780 0001255  90.9267 269.1869 15.08838624 91026,6917.885,95.438,540.618,538.881,0.0
54190.0,STARLINK-5281,PAYLOAD,2024-06-18 15:46:15,15.08840185,0.0001236,53.2185,298.083,100.9582,259.1549,5.7871e-05,6.33e-06,0.0,0 STARLINK-5281,1 54190U 22141AK  24170.65712231  .00000633  00000-0  57871-4 0  9994,2 54190  53.2185 298.0830 0001236 100.9582 259.1549 15.08840185 91030,6917.88,95.438,540.6,538.89,0.0
54190.0,STARLINK-5281,PAYLOAD,2024-06-19 12:26:17,15.08828679,0.0001262,53.2187,294.218,106.7401,253.373,1.642e-05,-2.7e-07,0.0,0 STARLINK-5281,1 54190U 22141AK  24171.51825462 -.00000027  00000-0  16420-4 0  9994,2 54190  53.2187 294.2180 0001262 106.7401 253.3730 15.08828679 91392,6917.915,95.438,540.653,538.907,0.0
54190.0,STARLINK-5281,PAYLOAD,2024-06-19 14:01:40,15.08830884,0.0001319,53.2182,293.9209,106.1475,253.9663,-1.2413e-06,-3.08e-06,0.0,0 STARLINK-5281,1 54190U 22141AK  24171.58449398 -.00000308  00000-0 -12413-5 0  9993,2 54190  53.2182 293.9209 0001319 106.1475 253.9663 15.08830884 91171,6917.908,95.438,540.686,538.861,0.0
54190.0,STARLINK-5281,PAYLOAD,2024-06-19 17:12:26,15.08834605,0.0001422,53.2192,293.3241,94.0067,266.1088,4.4914e-05,4.27e-06,0.0,0 STARLINK-5281,1 54190U 22141AK  24171.71697151  .00000427  00000-0  44914-4 0  9990,2 54190  53.2192 293.3241 0001422  94.0067 266.1088 15.08834605 91193,6917.897,95.438,540.746,538.778,0.0
54190.0,STARLINK-5281,PAYLOAD,2024-06-20 13:52:26,15.08845547,0.0001384,53.2187,289.4578,88.8757,271.2394,0.00012394,1.685e-05,0.0,0 STARLINK-5281,1 54190U 22141AK  24172.57808498  .00001685  00000-0  12394-3 0  9996,2 54190  53.2187 289.4578 0001384  88.8757 271.2394 15.08845547 91329,6917.863,95.437,540.686,538.771,0.0
54190.0,STARLINK-5281,PAYLOAD,2024-06-20 17:03:12,15.0885243,0.0001679,53.2185,288.8623,96.4558,263.6625,0.00013695,1.893e-05,0.0,0 STARLINK-5281,1 54190U 22141AK  24172.71056177  .00001893  00000-0  13695-3 0  9997,2 54190  53.2185 288.8623 0001679  96.4558 263.6625 15.08852430 91570,6917.842,95.437,540.869,538.546,0.0
54190.0,STARLINK-5281,PAYLOAD,2024-06-21 01:00:08,15.08845197,0.0001219,53.2168,287.3752,90.4206,269.6926,0.00013332,1.835e-05,0.0,0 STARLINK-5281,1 54190U 22141AK  24173.04176474  .00001835  00000-0  13332-3 0  9991,2 54190  53.2168 287.3752 0001219  90.4206 269.6926 15.08845197 91620,6917.865,95.437,540.573,538.886,0.0
54190.0,STARLINK-5281,PAYLOAD,2024-06-21 12:07:50,15.08840601,0.0001455,53.2172,285.2944,89.435,270.6809,0.00016255,2.3e-05,0.0,0 STARLINK-5281,1 54190U 22141AK  24173.50544887  .00002300  00000-0  16255-3 0  9994,2 54190  53.2172 285.2944 0001455  89.4350 270.6809 15.08840601 91464,6917.879,95.438,540.75,538.737,0.0
54190.0,STARLINK-5281,PAYLOAD,2024-06-22 13:34:00,15.08847017,0.0001329,53.2168,280.5358,93.8625,266.2519,5.4455e-05,5.79e-06,0.0,0 STARLINK-5281,1 54190U 22141AK  24174.56528550  .00000579  00000-0  54455-4 0  9991,2 54190  53.2168 280.5358 0001329  93.8625 266.2519 15.08847017 91625,6917.859,95.437,540.643,538.805,0.0
54190.0,STARLINK-5281,PAYLOAD,2024-06-23 11:49:24,15.0884107,0.0001253,53.2179,276.3745,89.0577,271.0559,9.1696e-05,1.172e-05,0.0,0 STARLINK-5281,1 54190U 22141AK  24175.49264700  .00001172  00000-0  91696-4 0  9996,2 54190  53.2179 276.3745 0001253  89.0577 271.0559 15.08841070 91990,6917.877,95.437,540.609,538.875,0.0
54190.0,STARLINK-5281,PAYLOAD,2024-06-23 13:24:47,15.08842114,0.0001319,53.2172,276.0767,90.4776,269.6368,9.2851e-05,1.19e-05,0.0,0 STARLINK-5281,1 54190U 22141AK  24175.55888609  .00001190  00000-0  92851-4 0  9997,2 54190  53.2172 276.0767 0001319  90.4776 269.6368 15.08842114 91771,6917.874,95.437,540.651,538.826,0.0
54190.0,STARLINK-5281,PAYLOAD,2024-06-24 11:40:11,15.08845667,0.0001343,53.2178,271.9136,99.5319,260.5825,0.00011367,1.522e-05,0.0,0 STARLINK-5281,1 54190U 22141AK  24176.48624138  .00001522  00000-0  11367-3 0  9996,2 54190  53.2178 271.9136 0001343  99.5319 260.5825 15.08845667 91911,6917.863,95.437,540.657,538.799,0.0
54190.0,STARLINK-5281,PAYLOAD,2024-06-25 13:06:22,15.08835747,0.0001343,53.2174,267.1561,97.8594,262.255,1.7798e-05,-5e-08,0.0,0 STARLINK-5281,1 54190U 22141AK  24177.54609127 -.00000005  00000-0  17798-4 0  9996,2 54190  53.2174 267.1561 0001343  97.8594 262.2550 15.08835747 92308,6917.893,95.438,540.687,538.829,0.0
54190.0,STARLINK-5281,PAYLOAD,2024-06-26 11:21:45,15.08863323,0.0001409,53.217,262.993,96.4268,263.6884,-0.0001773,-3.11e-05,0.0,0 STARLINK-5281,1 54190U 22141AK  24178.47343853 -.00003110  00000-0 -17730-3 0  9996,2 54190  53.2170 262.9930 0001409  96.4268 263.6884 15.08863323 92444,6917.809,95.436,540.649,538.699,0.0
54190.0,STARLINK-5281,PAYLOAD,2024-06-26 14:32:31,15.08856395,0.0001327,53.217,262.3924,99.0151,261.0992,-4.5958e-06,-3.61e-06,0.0,0 STARLINK-5281,1 54190U 22141AK  24178.60591707 -.00000361  00000-0 -45958-5 0  9994,2 54190  53.2170 262.3924 0001327  99.0151 261.0992 15.08856395 92230,6917.83,95.437,540.613,538.777,0.0
54190.0,STARLINK-5281,PAYLOAD,2024-06-27 12:47:56,15.08841752,0.0001121,53.216,258.2281,70.7201,289.3913,7.7561e-05,9.47e-06,0.0,0 STARLINK-5281,1 54190U 22141AK  24179.53328753  .00000947  00000-0  77561-4 0  9998,2 54190  53.2160 258.2281 0001121  70.7201 289.3913 15.08841752 92601,6917.875,95.437,540.516,538.965,0.0
54190.0,STARLINK-5281,PAYLOAD,2024-06-28 12:38:42,15.08849733,0.0001487,53.2155,253.77,67.8697,292.2453,3.4825e-05,2.66e-06,0.0,0 STARLINK-5281,1 54190U 22141AK  24180.52688539  .00000266  00000-0  34825-4 0  9990,2 54190  53.2155 253.7700 0001487  67.8697 292.2453 15.08849733 92522,6917.851,95.437,540.744,538.687,0.0
54190.0,STARLINK-5281,PAYLOAD,2024-06-28 22:11:01,15.08851133,0.0001169,53.2132,251.99,79.9029,280.2095,7.7168e-05,9.41e-06,0.0,0 STARLINK-5281,1 54190U 22141AK  24180.92431977  .00000941  00000-0  77168-4 0  9993,2 54190  53.2132 251.9900 0001169  79.9029 280.2095 15.08851133 92581,6917.846,95.437,540.52,538.903,0.0
